IRIDIUM 63              
1 25286U 98021B   25110.92173985  .00000735  00000+0  24411-3 0  9995
2 25286  86.3931 106.1614 0002454  89.8350 270.3129 14.36487403415624
IRIDIUM 69              
1 25319U 98026A   25110.97087612  .00000788  00000+0  23959-3 0  9997
2 25319  86.3934 119.6066 0002215 150.8356 209.2968 14.40899397414821
IRIDIUM 71              
1 25320U 98026B   25110.56877647  .00000774  00000+0  23429-3 0  9996
2 25320  86.3929 114.4763 0000327  36.8290 323.2932 14.41095594415294
IRIDIUM 73              
1 25344U 98032C   25110.84999982  .00001228  00000+0  30160-3 0  9992
2 25344  86.4391  71.1640 0002356 103.0645 257.0823 14.51625459422248
IRIDIUM 82              
1 25467U 98051A   25110.50143171  .00029224  00000+0  90679-3 0  9990
2 25467  86.3675 138.0370 0092872 153.6927 206.9083 15.29027782415139
